[{"OBJECT_NAME":"DONGPO 03","OBJECT_ID":"2022-098G","EPOCH":"2026-03-09T23:33:34.890048","MEAN_MOTION":15.70958192,"ECCENTRICITY":0.00010558,"INCLINATION":97.5452,"RA_OF_ASC_NODE":197.1326,"ARG_OF_PERICENTER":261.4023,"MEAN_ANOMALY":98.7119,"EPHEMERIS_TYPE":0,"CLASSIFICATION_TYPE":"U","NORAD_CAT_ID":53450,"ELEMENT_SET_NO":999,"REV_AT_EPOCH":19946,"BSTAR":0.0010143925,"MEAN_MOTION_DOT":0.00128253,"MEAN_MOTION_DDOT":0},{"OBJECT_NAME":"STARLINK-11368 [DTC]","OBJECT_ID":"2024-187K","EPOCH":"2026-03-09T22:09:53.437824","MEAN_MOTION":15.6969822,"ECCENTRICITY":9.39e-5,"INCLINATION":53.1581,"RA_OF_ASC_NODE":295.3458,"ARG_OF_PERICENTER":97.7006,"MEAN_ANOMALY":262.4118,"EPHEMERIS_TYPE":0,"CLASSIFICATION_TYPE":"U","NORAD_CAT_ID":61583,"ELEMENT_SET_NO":999,"REV_AT_EPOCH":8073,"BSTAR":1.6556389e-5,"MEAN_MOTION_DOT":1.417e-5,"MEAN_MOTION_DDOT":0}]
